TEVEL2-3                
1 63218U 25052J   26068.64540225  .00020365  00000+0  69446-3 0  9991
2 63218  97.3994 324.7775 0004761 105.7353 254.4413 15.30377031 54855
STARLINK-34138          
1 63971U 25099V   26068.34322387  .00028264  00000+0  10320-2 0  9994
2 63971  43.0010 174.6815 0004306 288.6513  71.3871 15.27596925 47328
